{"type": "FeatureCollection", "features": [ {"type": "Feature", "properties": {"norad_id": 66869, "name": "STARLINK-36092", "group": "last-30-days", "lat": 20.514538677138894, "lon": 80.97416380687352, "alt_km": 378.3989763230438, "timestamp": "2025-12-23T09:49:05.798261+00:00", "meta": {"OBJECT_NAME": "STARLINK-36092", "OBJECT_ID": "2025-281X", "EPOCH": "2025-12-22T22:00:03.000096", "MEAN_MOTION": 15.64393505, "ECCENTRICITY": 0.00011196, "INCLINATION": 43.0001, "RA_OF_ASC_NODE": 60.2357, "ARG_OF_PERICENTER": 282.2833, "MEAN_ANOMALY": 214.2329, "EPHEMERIS_TYPE": 0, "CLASSIFICATION_TYPE": "U", "NORAD_CAT_ID": 66869, "ELEMENT_SET_NO": 999, "REV_AT_EPOCH": 306, "BSTAR": -0.023436432, "MEAN_MOTION_DOT": -0.0202802, "MEAN_MOTION_DDOT": 0}, "tle": {"line1": "1 66869U 25281X   25356.91670139 -.02028020  00000+0 -23436-1 0  9994", "line2": "2 66869  43.0001  60.2357 0001119 282.2833 214.2329 15.64393505  3061"}}, "geometry": {"type": "Point", "coordinates": [80.97416380687352, 20.514538677138894]}}, {"type": "Feature", "properties": {"norad_id": 66870, "name": "STARLINK-36114", "group": "last-30-days", "lat": 21.70525310094553, "lon": 82.58224576566087, "alt_km": 378.26950409654455, "timestamp": "2025-12-23T09:49:05.798292+00:00", "meta": {"OBJECT_NAME": "STARLINK-36114", "OBJECT_ID": "2025-281Y", "EPOCH": "2025-12-22T22:00:03.000096", "MEAN_MOTION": 15.64392809, "ECCENTRICITY": 0.00011392, "INCLINATION": 43.0006, "RA_OF_ASC_NODE": 60.2308, "ARG_OF_PERICENTER": 280.8014, "MEAN_ANOMALY": 217.6312, "EPHEMERIS_TYPE": 0, "CLASSIFICATION_TYPE": "U", "NORAD_CAT_ID": 66870, "ELEMENT_SET_NO": 999, "REV_AT_EPOCH": 292, "BSTAR": -0.02341004, "MEAN_MOTION_DOT": -0.02025985, "MEAN_MOTION_DDOT": 0}, "tle": {"line1": "1 66870U 25281Y   25356.91670139 -.02025985  00000+0 -23410-1 0  9995", "line2": "2 66870  43.0006  60.2308 0001139 280.8014 217.6312 15.64392809  2920"}}, "geometry": {"type": "Point", "coordinates": [82.58224576566087, 21.70525310094553]}}, {"type": "Feature", "properties": {"norad_id": 66871, "name": "STARLINK-36095", "group": "last-30-days", "lat": 22.879093376567997, "lon": 84.21575210520535, "alt_km": 378.11676645722855, "timestamp": "2025-12-23T09:49:05.798304+00:00", "meta": {"OBJECT_NAME": "STARLINK-36095", "OBJECT_ID": "2025-281Z", "EPOCH": "2025-12-22T22:00:03.000096", "MEAN_MOTION": 15.64393024, "ECCENTRICITY": 0.00010519, "INCLINATION": 43.0005, "RA_OF_ASC_NODE": 60.2255, "ARG_OF_PERICENTER": 279.398, "MEAN_ANOMALY": 220.9513, "EPHEMERIS_TYPE": 0, "CLASSIFICATION_TYPE": "U", "NORAD_CAT_ID": 66871, "ELEMENT_SET_NO": 999, "REV_AT_EPOCH": 306, "BSTAR": -0.023408782, "MEAN_MOTION_DOT": -0.02025839, "MEAN_MOTION_DDOT": 0}, "tle": {"line1": "1 66871U 25281Z   25356.91670139 -.02025839  00000+0 -23409-1 0  9992", "line2": "2 66871  43.0005  60.2255 0001051 279.3980 220.9513 15.64393024  3065"}}, "geometry": {"type": "Point", "coordinates": [84.21575210520535, 22.879093376567997]}}, {"type": "Feature", "properties": {"norad_id": 66872, "name": "STARLINK-36082", "group": "last-30-days", "lat": 24.03673364519906, "lon": 85.87954742985738, "alt_km": 377.9525492656121, "timestamp": "2025-12-23T09:49:05.798317+00:00", "meta": {"OBJECT_NAME": "STARLINK-36082", "OBJECT_ID": "2025-281AA", "EPOCH": "2025-12-22T22:00:03.000096", "MEAN_MOTION": 15.64395062, "ECCENTRICITY": 0.00011257, "INCLINATION": 43.0002, "RA_OF_ASC_NODE": 60.2206, "ARG_OF_PERICENTER": 281.1931, "MEAN_ANOMALY": 221.0741, "EPHEMERIS_TYPE": 0, "CLASSIFICATION_TYPE": "U", "NORAD_CAT_ID": 66872, "ELEMENT_SET_NO": 999, "REV_AT_EPOCH": 292, "BSTAR": -0.023469163, "MEAN_MOTION_DOT": -0.02030615, "MEAN_MOTION_DDOT": 0}, "tle": {"line1": "1 66872U 25281AA  25356.91670139 -.02030615  00000+0 -23469-1 0  9997", "line2": "2 66872  43.0002  60.2206 0001125 281.1931 221.0741 15.64395062  2921"}}, "geometry": {"type": "Point", "coordinates": [85.87954742985738, 24.03673364519906]}}, {"type": "Feature", "properties": {"norad_id": 66873, "name": "STARLINK-36128", "group": "last-30-days", "lat": 27.393458947386094, "lon": 91.05628371474558, "alt_km": 377.4564769717563, "timestamp": "2025-12-23T09:49:05.798329+00:00", "meta": {"OBJECT_NAME": "STARLINK-36128", "OBJECT_ID": "2025-281AB", "EPOCH": "2025-12-22T22:00:03.000096", "MEAN_MOTION": 15.64392503, "ECCENTRICITY": 0.00011261, "INCLINATION": 43.0003, "RA_OF_ASC_NODE": 60.2056, "ARG_OF_PERICENTER": 282.6505, "MEAN_ANOMALY": 225.3666, "EPHEMERIS_TYPE": 0, "CLASSIFICATION_TYPE": "U", "NORAD_CAT_ID": 66873, "ELEMENT_SET_NO": 999, "REV_AT_EPOCH": 306, "BSTAR": -0.023402898, "MEAN_MOTION_DOT": -0.02025412, "MEAN_MOTION_DDOT": 0}, "tle": {"line1": "1 66873U 25281AB  25356.91670139 -.02025412  00000+0 -23403-1 0  9995", "line2": "2 66873  43.0003  60.2056 0001126 282.6505 225.3666 15.64392503  3066"}}, "geometry": {"type": "Point", "coordinates": [91.05628371474558, 27.393458947386094]}}, {"type": "Feature", "properties": {"norad_id": 66874, "name": "STARLINK-36129", "group": "last-30-days", "lat": 25.176025621618653, "lon": 87.57311766477068, "alt_km": 377.7412852041134, "timestamp": "2025-12-23T09:49:05.798339+00:00", "meta": {"OBJECT_NAME": "STARLINK-36129", "OBJECT_ID": "2025-281AC", "EPOCH": "2025-12-22T22:00:03.000096", "MEAN_MOTION": 15.64392283, "ECCENTRICITY": 0.00011428, "INCLINATION": 43.0002, "RA_OF_ASC_NODE": 60.2156, "ARG_OF_PERICENTER": 283.5235, "MEAN_ANOMALY": 220.6591, "EPHEMERIS_TYPE": 0, "CLASSIFICATION_TYPE": "U", "NORAD_CAT_ID": 66874, "ELEMENT_SET_NO": 999, "REV_AT_EPOCH": 306, "BSTAR": -0.02339169, "MEAN_MOTION_DOT": -0.0202456, "MEAN_MOTION_DDOT": 0}, "tle": {"line1": "1 66874U 25281AC  25356.91670139 -.02024560  00000+0 -23392-1 0  9996", "line2": "2 66874  43.0002  60.2156 0001142 283.5235 220.6591 15.64392283  3065"}}, "geometry": {"type": "Point", "coordinates": [87.57311766477068, 25.176025621618653]}}, {"type": "Feature", "properties": {"norad_id": 66875, "name": "STARLINK-36053", "group": "last-30-days", "lat": 28.46867197338179, "lon": 92.84888944031343, "alt_km": 377.33205877961063, "timestamp": "2025-12-23T09:49:05.798349+00:00", "meta": {"OBJECT_NAME": "STARLINK-36053", "OBJECT_ID": "2025-281AD", "EPOCH": "2025-12-22T22:00:03.000096", "MEAN_MOTION": 15.64393309, "ECCENTRICITY": 0.00011042, "INCLINATION": 43.0003, "RA_OF_ASC_NODE": 60.2004, "ARG_OF_PERICENTER": 281.6656, "MEAN_ANOMALY": 228.2704, "EPHEMERIS_TYPE": 0, "CLASSIFICATION_TYPE": "U", "NORAD_CAT_ID": 66875, "ELEMENT_SET_NO": 999, "REV_AT_EPOCH": 306, "BSTAR": -0.02344791, "MEAN_MOTION_DOT": -0.02028863, "MEAN_MOTION_DDOT": 0}, "tle": {"line1": "1 66875U 25281AD  25356.91670139 -.02028863  00000+0 -23448-1 0  9999", "line2": "2 66875  43.0003  60.2004 0001104 281.6656 228.2704 15.64393309  3063"}}, "geometry": {"type": "Point", "coordinates": [92.84888944031343, 28.46867197338179]}}, {"type": "Feature", "properties": {"norad_id": 66876, "name": "STARLINK-35702", "group": "last-30-days", "lat": 26.29518046636063, "lon": 89.29797615363756, "alt_km": 377.6122950506888, "timestamp": "2025-12-23T09:49:05.798359+00:00", "meta": {"OBJECT_NAME": "STARLINK-35702", "OBJECT_ID": "2025-281AE", "EPOCH": "2025-12-22T22:00:03.000096", "MEAN_MOTION": 15.64394629, "ECCENTRICITY": 0.00011311, "INCLINATION": 43.0001, "RA_OF_ASC_NODE": 60.2106, "ARG_OF_PERICENTER": 282.7815, "MEAN_ANOMALY": 223.3191, "EPHEMERIS_TYPE": 0, "CLASSIFICATION_TYPE": "U", "NORAD_CAT_ID": 66876, "ELEMENT_SET_NO": 999, "REV_AT_EPOCH": 306, "BSTAR": -0.023454415, "MEAN_MOTION_DOT": -0.02029471, "MEAN_MOTION_DDOT": 0}, "tle": {"line1": "1 66876U 25281AE  25356.91670139 -.02029471  00000+0 -23454-1 0  9993", "line2": "2 66876  43.0001  60.2106 0001131 282.7815 223.3191 15.64394629  3066"}}, "geometry": {"type": "Point", "coordinates": [89.29797615363756, 26.29518046636063]}}, {"type": "Feature", "properties": {"norad_id": 66877, "name": "ZQ-3 R/B", "group": "last-30-days", "lat": -46.98079864556057, "lon": -28.0933046262571, "alt_km": 369.0564874629745, "timestamp": "2025-12-23T09:49:05.798370+00:00", "meta": {"OBJECT_NAME": "ZQ-3 R/B", "OBJECT_ID": "2025-282A", "EPOCH": "2025-12-22T11:23:59.363232", "MEAN_MOTION": 14.79282387, "ECCENTRICITY": 0.06971379, "INCLINATION": 56.9489, "RA_OF_ASC_NODE": 19.8433, "ARG_OF_PERICENTER": 237.0909, "MEAN_ANOMALY": 116.1203, "EPHEMERIS_TYPE": 0, "CLASSIFICATION_TYPE": "U", "NORAD_CAT_ID": 66877, "ELEMENT_SET_NO": 999, "REV_AT_EPOCH": 282, "BSTAR": 0.00018256658, "MEAN_MOTION_DOT": 0.01038407, "MEAN_MOTION_DDOT": 7.826595e-06}, "tle": {"line1": "1 66877U 25282A   25356.47499263  .01038407  78266-5  18257-3 0  9991", "line2": "2 66877  56.9489  19.8433 0697137 237.0909 116.1203 14.79282387  2825"}}, "geometry": {"type": "Point", "coordinates": [-28.0933046262571, -46.98079864556057]}}, {"type": "Feature", "properties": {"norad_id": 66878, "name": "STARLINK-35866", "group": "last-30-days", "lat": 38.787216296710795, "lon": 163.43232144838692, "alt_km": 353.9276518271281, "timestamp": "2025-12-23T09:49:05.798380+00:00", "meta": {"OBJECT_NAME": "STARLINK-35866", "OBJECT_ID": "2025-283A", "EPOCH": "2025-12-22T22:00:03.000096", "MEAN_MOTION": 15.71772591, "ECCENTRICITY": 0.00013528, "INCLINATION": 53.159, "RA_OF_ASC_NODE": 22.9164, "ARG_OF_PERICENTER": 90.9796, "MEAN_ANOMALY": 131.4826, "EPHEMERIS_TYPE": 0, "CLASSIFICATION_TYPE": "U", "NORAD_CAT_ID": 66878, "ELEMENT_SET_NO": 999, "REV_AT_EPOCH": 406, "BSTAR": -0.016309717, "MEAN_MOTION_DOT": -0.01875077, "MEAN_MOTION_DDOT": 0}, "tle": {"line1": "1 66878U 25283A   25356.91670139 -.01875077  00000+0 -16310-1 0  9990", "line2": "2 66878  53.1590  22.9164 0001352  90.9796 131.4826 15.71772591  4065"}}, "geometry": {"type": "Point", "coordinates": [163.43232144838692, 38.787216296710795]}}]}